start=new Date('2022-03-31T00:00:00.000Z').valueOf();
sats=[{"MEAN_ANOMALY":"289.2722","COUNTRY_CODE":"US","CENTER_NAME":"EARTH","MEAN_MOTION":"15.06399888","ECCENTRICITY":"0.00016270","TIME_SYSTEM":"UTC","CLASSIFICATION_TYPE":"U","ARG_OF_PERICENTER":"70.8443","MEAN_ELEMENT_THEORY":"SGP4","TLE_LINE2":"2 47587  53.0554 355.2023 0001627  70.8443 289.2722 15.06399888 63926","OBJECT_NAME":"STARLINK-1991","EPHEMERIS_TYPE":"0","RCS_SIZE":"LARGE","OBJECT_TYPE":"PAYLOAD","RA_OF_ASC_NODE":"355.2023","APOAPSIS":"548.341","GP_ID":"200097143","NORAD_CAT_ID":"47587","INCLINATION":"53.0554","REF_FRAME":"TEME","MEAN_MOTION_DDOT":"0.0000000000000","EPOCH":"2022-03-30T21:02:59.321472","PERIOD":"95.592","LAUNCH_DATE":"2021-02-04","TLE_LINE1":"1 47587U 21009AR  22089.87707548  .00003316  00000-0  24144-3 0  9991","ELEMENT_SET_NO":"999","SITE":"AFETR","REV_AT_EPOCH":"6392","BSTAR":"0.00024144000000","PERIAPSIS":"546.087","FILE":"3380787","DECAY_DATE":null,"MEAN_MOTION_DOT":"0.00003316","SEMIMAJOR_AXIS":"6925.349","OBJECT_ID":"2021-009AR"},{"TIME_SYSTEM":"UTC","ECCENTRICITY":"0.00016480","CLASSIFICATION_TYPE":"U","ARG_OF_PERICENTER":"63.9075","MEAN_MOTION":"15.06391319","CENTER_NAME":"EARTH","MEAN_ANOMALY":"296.2083","COUNTRY_CODE":"US","OBJECT_TYPE":"PAYLOAD","RA_OF_ASC_NODE":"7.0092","APOAPSIS":"548.381","RCS_SIZE":"LARGE","EPHEMERIS_TYPE":"0","TLE_LINE2":"2 47588  53.0560   7.0092 0001648  63.9075 296.2083 15.06391319 63726","OBJECT_NAME":"STARLINK-1993","MEAN_ELEMENT_THEORY":"SGP4","MEAN_MOTION_DDOT":"0.0000000000000","EPOCH":"2022-03-30T11:17:48.677856","INCLINATION":"53.0560","REF_FRAME":"TEME","NORAD_CAT_ID":"47588","GP_ID":"200070782","OBJECT_ID":"2021-009AS","SEMIMAJOR_AXIS":"6925.375","MEAN_MOTION_DOT":"0.00001093","FILE":"3380779","PERIAPSIS":"546.099","DECAY_DATE":null,"BSTAR":"0.00009227200000","ELEMENT_SET_NO":"999","SITE":"AFETR","REV_AT_EPOCH":"6372","TLE_LINE1":"1 47588U 21009AS  22089.47070229  .00001093  00000-0  92272-4 0  9995","LAUNCH_DATE":"2021-02-04","PERIOD":"95.593"},{"MEAN_ELEMENT_THEORY":"SGP4","TLE_LINE2":"2 47589  53.0554   6.9393 0001549  59.2408 300.8733 15.06397658 63726","OBJECT_NAME":"STARLINK-1994","EPHEMERIS_TYPE":"0","RCS_SIZE":"LARGE","OBJECT_TYPE":"PAYLOAD","APOAPSIS":"548.293","RA_OF_ASC_NODE":"6.9393","MEAN_ANOMALY":"300.8733","COUNTRY_CODE":"US","CENTER_NAME":"EARTH","MEAN_MOTION":"15.06397658","TIME_SYSTEM":"UTC","ECCENTRICITY":"0.00015490","ARG_OF_PERICENTER":"59.2408","CLASSIFICATION_TYPE":"U","PERIOD":"95.592","LAUNCH_DATE":"2021-02-04","TLE_LINE1":"1 47589U 21009AT  22089.48912418  .00000243  00000-0  35225-4 0  9993","ELEMENT_SET_NO":"999","SITE":"AFETR","REV_AT_EPOCH":"6372","BSTAR":"0.00003522500000","FILE":"3380779","PERIAPSIS":"546.148","DECAY_DATE":null,"MEAN_MOTION_DOT":"0.00000243","SEMIMAJOR_AXIS":"6925.356","OBJECT_ID":"2021-009AT","GP_ID":"200071532","NORAD_CAT_ID":"47589","INCLINATION":"53.0554","REF_FRAME":"TEME","MEAN_MOTION_DDOT":"0.0000000000000","EPOCH":"2022-03-30T11:44:20.329152"},{"DECAY_DATE":null,"FILE":"3380779","PERIAPSIS":"545.836","BSTAR":"0.00003401900000","SEMIMAJOR_AXIS":"6925.353","OBJECT_ID":"2021-009AU","MEAN_MOTION_DOT":"0.00000225","LAUNCH_DATE":"2021-02-04","PERIOD":"95.592","SITE":"AFETR","REV_AT_EPOCH":"6345","ELEMENT_SET_NO":"999","TLE_LINE1":"1 47590U 21009AU  22089.54626236  .00000225  00000-0  34019-4 0  9992","NORAD_CAT_ID":"47590","MEAN_MOTION_DDOT":"0.0000000000000","EPOCH":"2022-03-30T13:06:37.067904","REF_FRAME":"TEME","INCLINATION":"53.0576","GP_ID":"200071783","RA_OF_ASC_NODE":"26.6795","APOAPSIS":"548.599","OBJECT_TYPE":"PAYLOAD","OBJECT_NAME":"STARLINK-1995","TLE_LINE2":"2 47590  53.0576  26.6795 0001995  49.6276 310.4887 15.06398610 63454","MEAN_ELEMENT_THEORY":"SGP4","RCS_SIZE":"LARGE","EPHEMERIS_TYPE":"0","CENTER_NAME":"EARTH","CLASSIFICATION_TYPE":"U","ARG_OF_PERICENTER":"49.6276","TIME_SYSTEM":"UTC","ECCENTRICITY":"0.00019950","MEAN_MOTION":"15.06398610","COUNTRY_CODE":"US","MEAN_ANOMALY":"310.4887"},{"COUNTRY_CODE":"US","MEAN_ANOMALY":"305.6607","CENTER_NAME":"EARTH","CLASSIFICATION_TYPE":"U","ARG_OF_PERICENTER":"54.4556","TIME_SYSTEM":"UTC","ECCENTRICITY":"0.00018700","MEAN_MOTION":"15.06413333","OBJECT_NAME":"STARLINK-1996","TLE_LINE2":"2 47591  53.0566   5.4668 0001870  54.4556 305.6607 15.06413333 63776","MEAN_ELEMENT_THEORY":"SGP4","RCS_SIZE":"LARGE","EPHEMERIS_TYPE":"0","APOAPSIS":"548.468","RA_OF_ASC_NODE":"5.4668","OBJECT_TYPE":"PAYLOAD","GP_ID":"200097644","NORAD_CAT_ID":"47591","MEAN_MOTION_DDOT":"0.0000000000000","EPOCH":"2022-03-30T19:36:43.390368","REF_FRAME":"TEME","INCLINATION":"53.0566","LAUNCH_DATE":"2021-02-04","PERIOD":"95.591","SITE":"AFETR","REV_AT_EPOCH":"6377","ELEMENT_SET_NO":"999","TLE_LINE1":"1 47591U 21009AV  22089.81716887  .00000890  00000-0  78634-4 0  9994","DECAY_DATE":null,"PERIAPSIS":"545.878","FILE":"3380787","BSTAR":"0.00007863400000","OBJECT_ID":"2021-009AV","SEMIMAJOR_AXIS":"6925.308","MEAN_MOTION_DOT":"0.00000890"},{"NORAD_CAT_ID":"47592","EPOCH":"2022-03-30T12:24:08.842464","MEAN_MOTION_DDOT":"0.0000000000000","INCLINATION":"53.0561","REF_FRAME":"TEME","GP_ID":"200032778","FILE":"3379935","PERIAPSIS":"546.177","DECAY_DATE":null,"BSTAR":"-0.00004184800000","OBJECT_ID":"2021-009AW","SEMIMAJOR_AXIS":"6925.379","MEAN_MOTION_DOT":"-0.00000905","LAUNCH_DATE":"2021-02-04","PERIOD":"95.593","ELEMENT_SET_NO":"999","REV_AT_EPOCH":"6404","SITE":"AFETR","TLE_LINE1":"1 47592U 21009AW  22089.51676901 -.00000905  00000-0 -41848-4 0  9990","CENTER_NAME":"EARTH","ECCENTRICITY":"0.00015410","TIME_SYSTEM":"UTC","ARG_OF_PERICENTER":"61.3120","CLASSIFICATION_TYPE":"U","MEAN_MOTION":"15.06390039","MEAN_ANOMALY":"298.8023","COUNTRY_CODE":"US","OBJECT_TYPE":"PAYLOAD","APOAPSIS":"548.311","RA_OF_ASC_NODE":"26.8146","TLE_LINE2":"2 47592  53.0561  26.8146 0001541  61.3120 298.8023 15.06390039 64042","OBJECT_NAME":"STARLINK-1997","MEAN_ELEMENT_THEORY":"SGP4","RCS_SIZE":"LARGE","EPHEMERIS_TYPE":"0"},{"RA_OF_ASC_NODE":"26.6352","APOAPSIS":"548.554","OBJECT_TYPE":"PAYLOAD","RCS_SIZE":"LARGE","EPHEMERIS_TYPE":"0","OBJECT_NAME":"STARLINK-1998","TLE_LINE2":"2 47593  53.0551  26.6352 0001958  47.6378 312.4776 15.06405119 63451","MEAN_ELEMENT_THEORY":"SGP4","CLASSIFICATION_TYPE":"U","ARG_OF_PERICENTER":"47.6378","ECCENTRICITY":"0.00019580","TIME_SYSTEM":"UTC","MEAN_MOTION":"15.06405119","CENTER_NAME":"EARTH","COUNTRY_CODE":"US","MEAN_ANOMALY":"312.4776","OBJECT_ID":"2021-009AX","SEMIMAJOR_AXIS":"6925.333","MEAN_MOTION_DOT":"0.00002975","DECAY_DATE":null,"PERIAPSIS":"545.842","FILE":"3380779","BSTAR":"0.00021854000000","REV_AT_EPOCH":"6345","SITE":"AFETR","ELEMENT_SET_NO":"999","TLE_LINE1":"1 47593U 21009AX  22089.55362614  .00002975  00000-0  21854-3 0  9999","LAUNCH_DATE":"2021-02-04","PERIOD":"95.592","MEAN_MOTION_DDOT":"0.0000000000000","EPOCH":"2022-03-30T13:17:13.298496","REF_FRAME":"TEME","INCLINATION":"53.0551","NORAD_CAT_ID":"47593","GP_ID":"200071032"},{"CENTER_NAME":"EARTH","MEAN_MOTION":"15.06401695","ARG_OF_PERICENTER":"57.1513","CLASSIFICATION_TYPE":"U","TIME_SYSTEM":"UTC","ECCENTRICITY":"0.00017350","COUNTRY_CODE":"US","MEAN_ANOMALY":"302.9643","RA_OF_ASC_NODE":"26.2040","APOAPSIS":"548.410","OBJECT_TYPE":"PAYLOAD","MEAN_ELEMENT_THEORY":"SGP4","OBJECT_NAME":"STARLINK-1999","TLE_LINE2":"2 47594  53.0554  26.2040 0001735  57.1513 302.9643 15.06401695 63468","EPHEMERIS_TYPE":"0","RCS_SIZE":"LARGE","NORAD_CAT_ID":"47594","REF_FRAME":"TEME","INCLINATION":"53.0554","EPOCH":"2022-03-30T15:40:32.376864","MEAN_MOTION_DDOT":"0.0000000000000","GP_ID":"200096392","BSTAR":"0.00009946300000","DECAY_DATE":null,"FILE":"3380787","PERIAPSIS":"546.007","MEAN_MOTION_DOT":"0.00001200","SEMIMAJOR_AXIS":"6925.343","OBJECT_ID":"2021-009AY","PERIOD":"95.592","LAUNCH_DATE":"2021-02-04","TLE_LINE1":"1 47594U 21009AY  22089.65315251  .00001200  00000-0  99463-4 0  9998","SITE":"AFETR","REV_AT_EPOCH":"6346","ELEMENT_SET_NO":"999"},{"APOAPSIS":"548.385","RA_OF_ASC_NODE":"28.0582","OBJECT_TYPE":"PAYLOAD","EPHEMERIS_TYPE":"0","RCS_SIZE":"LARGE","MEAN_ELEMENT_THEORY":"SGP4","OBJECT_NAME":"STARLINK-2000","TLE_LINE2":"2 47595  53.0570  28.0582 0001700  60.2190 299.8968 15.06401852 63409","MEAN_MOTION":"15.06401852","CLASSIFICATION_TYPE":"U","ARG_OF_PERICENTER":"60.2190","TIME_SYSTEM":"UTC","ECCENTRICITY":"0.00017000","CENTER_NAME":"EARTH","COUNTRY_CODE":"US","MEAN_ANOMALY":"299.8968","MEAN_MOTION_DOT":"-0.00001260","OBJECT_ID":"2021-009AZ","SEMIMAJOR_AXIS":"6925.343","BSTAR":"-0.00006570500000","DECAY_DATE":null,"FILE":"3380779","PERIAPSIS":"546.031","TLE_LINE1":"1 47595U 21009AZ  22089.24032746 -.00001260  00000-0 -65705-4 0  9999","SITE":"AFETR","REV_AT_EPOCH":"6340","ELEMENT_SET_NO":"999","PERIOD":"95.592","LAUNCH_DATE":"2021-02-04","REF_FRAME":"TEME","INCLINATION":"53.0570","MEAN_MOTION_DDOT":"0.0000000000000","EPOCH":"2022-03-30T05:46:04.292544","NORAD_CAT_ID":"47595","GP_ID":"200072512"},{"NORAD_CAT_ID":"47596","INCLINATION":"53.0549","REF_FRAME":"TEME","MEAN_MOTION_DDOT":"0.0000000000000","EPOCH":"2022-03-30T07:26:54.213216","GP_ID":"200070783","BSTAR":"-0.00002249400000","PERIAPSIS":"546.012","FILE":"3380779","DECAY_DATE":null,"MEAN_MOTION_DOT":"-0.00000617","OBJECT_ID":"2021-009BA","SEMIMAJOR_AXIS":"6925.356","PERIOD":"95.592","LAUNCH_DATE":"2021-02-04","TLE_LINE1":"1 47596U 21009BA  22089.31034969 -.00000617  00000-0 -22494-4 0  9990","ELEMENT_SET_NO":"999","SITE":"AFETR","REV_AT_EPOCH":"6341","CENTER_NAME":"EARTH","MEAN_MOTION":"15.06397429","TIME_SYSTEM":"UTC","ECCENTRICITY":"0.00017460","ARG_OF_PERICENTER":"52.0342","CLASSIFICATION_TYPE":"U","MEAN_ANOMALY":"308.0805","COUNTRY_CODE":"US","OBJECT_TYPE":"PAYLOAD","APOAPSIS":"548.431","RA_OF_ASC_NODE":"27.7357","MEAN_ELEMENT_THEORY":"SGP4","TLE_LINE2":"2 47596  53.0549  27.7357 0001746  52.0342 308.0805 15.06397429 63418","OBJECT_NAME":"STARLINK-2001","EPHEMERIS_TYPE":"0","RCS_SIZE":"LARGE"}];
